[{"OBJECT_NAME":"NIGCOMSAT 1R","OBJECT_ID":"2011-077A","EPOCH":"2026-05-22T05:47:26.448576","MEAN_MOTION":1.00273108,"ECCENTRICITY":0.00024076,"INCLINATION":0.0455,"RA_OF_ASC_NODE":116.6893,"ARG_OF_PERICENTER":233.6134,"MEAN_ANOMALY":18.9311,"EPHEMERIS_TYPE":0,"CLASSIFICATION_TYPE":"U","NORAD_CAT_ID":38014,"ELEMENT_SET_NO":999,"REV_AT_EPOCH":5269,"BSTAR":0,"MEAN_MOTION_DOT":1.37e-06,"MEAN_MOTION_DDOT":0},{"OBJECT_NAME":"WGS F4 (USA 233)","OBJECT_ID":"2012-003A","EPOCH":"2026-05-22T04:14:21.766848","MEAN_MOTION":1.0027088,"ECCENTRICITY":0.00014536,"INCLINATION":0.0112,"RA_OF_ASC_NODE":311.4975,"ARG_OF_PERICENTER":331.2909,"MEAN_ANOMALY":109.0404,"EPHEMERIS_TYPE":0,"CLASSIFICATION_TYPE":"U","NORAD_CAT_ID":38070,"ELEMENT_SET_NO":999,"REV_AT_EPOCH":4388,"BSTAR":0,"MEAN_MOTION_DOT":0,"MEAN_MOTION_DDOT":0},{"OBJECT_NAME":"SES-4","OBJECT_ID":"2012-007A","EPOCH":"2026-05-22T05:29:05.708256","MEAN_MOTION":1.0027238,"ECCENTRICITY":0.00024229,"INCLINATION":0.029,"RA_OF_ASC_NODE":30.6154,"ARG_OF_PERICENTER":37.4019,"MEAN_ANOMALY":232.128,"EPHEMERIS_TYPE":0,"CLASSIFICATION_TYPE":"U","NORAD_CAT_ID":38087,"ELEMENT_SET_NO":999,"REV_AT_EPOCH":5196,"BSTAR":0,"MEAN_MOTION_DOT":-1.76e-06,"MEAN_MOTION_DDOT":0},{"OBJECT_NAME":"BEIDOU-2 G5","OBJECT_ID":"2012-008A","EPOCH":"2026-05-22T04:09:27.370080","MEAN_MOTION":1.00273608,"ECCENTRICITY":0.00108722,"INCLINATION":3.5111,"RA_OF_ASC_NODE":69.844,"ARG_OF_PERICENTER":270.4234,"MEAN_ANOMALY":20.5928,"EPHEMERIS_TYPE":0,"CLASSIFICATION_TYPE":"U","NORAD_CAT_ID":38091,"ELEMENT_SET_NO":999,"REV_AT_EPOCH":5210,"BSTAR":0,"MEAN_MOTION_DOT":4.9e-07,"MEAN_MOTION_DDOT":0},{"OBJECT_NAME":"MUOS-1","OBJECT_ID":"2012-009A","EPOCH":"2026-05-22T05:06:52.590816","MEAN_MOTION":1.00271795,"ECCENTRICITY":0.00592592,"INCLINATION":5.424,"RA_OF_ASC_NODE":47.1713,"ARG_OF_PERICENTER":359.864,"MEAN_ANOMALY":169.6098,"EPHEMERIS_TYPE":0,"CLASSIFICATION_TYPE":"U","NORAD_CAT_ID":38093,"ELEMENT_SET_NO":999,"REV_AT_EPOCH":5218,"BSTAR":0,"MEAN_MOTION_DOT":-1.36e-06,"MEAN_MOTION_DDOT":0},{"OBJECT_NAME":"INTELSAT 22 (IS-22)","OBJECT_ID":"2012-011A","EPOCH":"2026-05-22T02:30:33.247008","MEAN_MOTION":1.00271267,"ECCENTRICITY":0.00018001,"INCLINATION":0.0061,"RA_OF_ASC_NODE":39.0949,"ARG_OF_PERICENTER":19.2371,"MEAN_ANOMALY":291.1564,"EPHEMERIS_TYPE":0,"CLASSIFICATION_TYPE":"U","NORAD_CAT_ID":38098,"ELEMENT_SET_NO":999,"REV_AT_EPOCH":692,"BSTAR":0,"MEAN_MOTION_DOT":-6.7e-07,"MEAN_MOTION_DDOT":0},{"OBJECT_NAME":"APSTAR-7","OBJECT_ID":"2012-013A","EPOCH":"2026-05-22T02:31:48.128160","MEAN_MOTION":1.00271163,"ECCENTRICITY":0.00023031,"INCLINATION":0.0215,"RA_OF_ASC_NODE":40.7405,"ARG_OF_PERICENTER":21.6847,"MEAN_ANOMALY":291.7709,"EPHEMERIS_TYPE":0,"CLASSIFICATION_TYPE":"U","NORAD_CAT_ID":38107,"ELEMENT_SET_NO":999,"REV_AT_EPOCH":5154,"BSTAR":0,"MEAN_MOTION_DOT":-1.1e-06,"MEAN_MOTION_DDOT":0},{"OBJECT_NAME":"YAHSAT 1B","OBJECT_ID":"2012-016A","EPOCH":"2026-05-22T04:06:12.680640","MEAN_MOTION":1.00272656,"ECCENTRICITY":0.00024227,"INCLINATION":0.0882,"RA_OF_ASC_NODE":91.3137,"ARG_OF_PERICENTER":339.0691,"MEAN_ANOMALY":278.5808,"EPHEMERIS_TYPE":0,"CLASSIFICATION_TYPE":"U","NORAD_CAT_ID":38245,"ELEMENT_SET_NO":999,"REV_AT_EPOCH":4534,"BSTAR":0,"MEAN_MOTION_DOT":1.18e-06,"MEAN_MOTION_DDOT":0},{"OBJECT_NAME":"AEHF-2 (USA 235)","OBJECT_ID":"2012-019A","EPOCH":"2026-05-22T02:05:38.526144","MEAN_MOTION":1.00271606,"ECCENTRICITY":0.0002498,"INCLINATION":6.592,"RA_OF_ASC_NODE":57.6786,"ARG_OF_PERICENTER":354.454,"MEAN_ANOMALY":202.5394,"EPHEMERIS_TYPE":0,"CLASSIFICATION_TYPE":"U","NORAD_CAT_ID":38254,"ELEMENT_SET_NO":999,"REV_AT_EPOCH":672,"BSTAR":0,"MEAN_MOTION_DOT":-1.43e-06,"MEAN_MOTION_DDOT":0},{"OBJECT_NAME":"JCSAT-13","OBJECT_ID":"2012-023A","EPOCH":"2026-05-22T06:10:39.224352","MEAN_MOTION":1.00270557,"ECCENTRICITY":0.00023542,"INCLINATION":0.0501,"RA_OF_ASC_NODE":90.4694,"ARG_OF_PERICENTER":329.1841,"MEAN_ANOMALY":36.9142,"EPHEMERIS_TYPE":0,"CLASSIFICATION_TYPE":"U","NORAD_CAT_ID":38331,"ELEMENT_SET_NO":999,"REV_AT_EPOCH":5128,"BSTAR":0,"MEAN_MOTION_DOT":-3.64e-06,"MEAN_MOTION_DDOT":0},{"OBJECT_NAME":"VINASAT-2","OBJECT_ID":"2012-023B","EPOCH":"2026-05-22T06:12:54.008352","MEAN_MOTION":1.00269558,"ECCENTRICITY":0.00024205,"INCLINATION":0.0214,"RA_OF_ASC_NODE":18.1394,"ARG_OF_PERICENTER":55.9462,"MEAN_ANOMALY":30.8729,"EPHEMERIS_TYPE":0,"CLASSIFICATION_TYPE":"U","NORAD_CAT_ID":38332,"ELEMENT_SET_NO":999,"REV_AT_EPOCH":4640,"BSTAR":0,"MEAN_MOTION_DOT":-3.37e-06,"MEAN_MOTION_DDOT":0},{"OBJECT_NAME":"NIMIQ 6","OBJECT_ID":"2012-026A","EPOCH":"2026-05-22T00:01:18.440832","MEAN_MOTION":1.00271822,"ECCENTRICITY":0.00025908,"INCLINATION":0.0218,"RA_OF_ASC_NODE":39.3615,"ARG_OF_PERICENTER":17.7876,"MEAN_ANOMALY":91.713,"EPHEMERIS_TYPE":0,"CLASSIFICATION_TYPE":"U","NORAD_CAT_ID":38342,"ELEMENT_SET_NO":999,"REV_AT_EPOCH":5015,"BSTAR":0,"MEAN_MOTION_DOT":-1.82e-06,"MEAN_MOTION_DDOT":0},{"OBJECT_NAME":"ZHONGXING-2A","OBJECT_ID":"2012-028A","EPOCH":"2026-05-22T04:24:21.591936","MEAN_MOTION":1.00270021,"ECCENTRICITY":0.0002883,"INCLINATION":1.3888,"RA_OF_ASC_NODE":84.1786,"ARG_OF_PERICENTER":37.4067,"MEAN_ANOMALY":282.5678,"EPHEMERIS_TYPE":0,"CLASSIFICATION_TYPE":"U","NORAD_CAT_ID":38352,"ELEMENT_SET_NO":999,"REV_AT_EPOCH":5103,"BSTAR":0,"MEAN_MOTION_DOT":-3e-06,"MEAN_MOTION_DDOT":0},{"OBJECT_NAME":"INTELSAT 19 (IS-19)","OBJECT_ID":"2012-030A","EPOCH":"2026-05-22T06:36:04.153248","MEAN_MOTION":1.00270649,"ECCENTRICITY":0.00028262,"INCLINATION":0.0163,"RA_OF_ASC_NODE":340.3744,"ARG_OF_PERICENTER":80.4299,"MEAN_ANOMALY":84.1275,"EPHEMERIS_TYPE":0,"CLASSIFICATION_TYPE":"U","NORAD_CAT_ID":38356,"ELEMENT_SET_NO":999,"REV_AT_EPOCH":5019,"BSTAR":0,"MEAN_MOTION_DOT":-6.5e-07,"MEAN_MOTION_DDOT":0},{"OBJECT_NAME":"ECHOSTAR 17","OBJECT_ID":"2012-035A","EPOCH":"2026-05-22T03:22:05.805408","MEAN_MOTION":1.00271415,"ECCENTRICITY":0.0002045,"INCLINATION":0.0168,"RA_OF_ASC_NODE":307.2156,"ARG_OF_PERICENTER":112.3508,"MEAN_ANOMALY":123.6322,"EPHEMERIS_TYPE":0,"CLASSIFICATION_TYPE":"U","NORAD_CAT_ID":38551,"ELEMENT_SET_NO":999,"REV_AT_EPOCH":5080,"BSTAR":0,"MEAN_MOTION_DOT":-8.3e-07,"MEAN_MOTION_DDOT":0},{"OBJECT_NAME":"METEOSAT-10 (MSG-3)","OBJECT_ID":"2012-035B","EPOCH":"2026-05-22T02:09:57.201696","MEAN_MOTION":1.00272305,"ECCENTRICITY":0.00018231,"INCLINATION":4.6124,"RA_OF_ASC_NODE":61.1365,"ARG_OF_PERICENTER":320.7469,"MEAN_ANOMALY":250.38,"EPHEMERIS_TYPE":0,"CLASSIFICATION_TYPE":"U","NORAD_CAT_ID":38552,"ELEMENT_SET_NO":999,"REV_AT_EPOCH":5059,"BSTAR":0,"MEAN_MOTION_DOT":-1.4e-07,"MEAN_MOTION_DDOT":0},{"OBJECT_NAME":"SES-5","OBJECT_ID":"2012-036A","EPOCH":"2026-05-22T05:36:42.478272","MEAN_MOTION":1.00271214,"ECCENTRICITY":0.00018494,"INCLINATION":0.0515,"RA_OF_ASC_NODE":307.616,"ARG_OF_PERICENTER":104.8159,"MEAN_ANOMALY":276.5855,"EPHEMERIS_TYPE":0,"CLASSIFICATION_TYPE":"U","NORAD_CAT_ID":38652,"ELEMENT_SET_NO":999,"REV_AT_EPOCH":4419,"BSTAR":0,"MEAN_MOTION_DOT":2.5e-07,"MEAN_MOTION_DDOT":0}]