NIGCOMSAT 1R            
1 38014U 11077A   26142.24127834  .00000137  00000+0  00000+0 0  9997
2 38014   0.0455 116.6893 0002407 233.6134  18.9311  1.00273108 52698
WGS F4 (USA 233)        
1 38070U 12003A   26142.17664082  .00000000  00000+0  00000+0 0  9991
2 38070   0.0112 311.4975 0001453 331.2909 109.0404  1.00270880 43881
SES-4                   
1 38087U 12007A   26142.22853829 -.00000176  00000+0  00000+0 0  9993
2 38087   0.0290  30.6154 0002422  37.4019 232.1280  1.00272380 51964
BEIDOU-2 G5             
1 38091U 12008A   26142.17323345  .00000049  00000+0  00000+0 0  9996
2 38091   3.5111  69.8440 0010872 270.4234  20.5928  1.00273608 52106
MUOS-1                  
1 38093U 12009A   26142.21310869 -.00000136  00000+0  00000+0 0  9999
2 38093   5.4240  47.1713 0059259 359.8640 169.6098  1.00271795 52185
INTELSAT 22 (IS-22)     
1 38098U 12011A   26142.10455147 -.00000067  00000+0  00000+0 0  9997
2 38098   0.0061  39.0949 0001800  19.2371 291.1564  1.00271267  6924
APSTAR-7                
1 38107U 12013A   26142.10541815 -.00000110  00000+0  00000+0 0  9997
2 38107   0.0215  40.7405 0002303  21.6847 291.7709  1.00271163 51546
YAHSAT 1B               
1 38245U 12016A   26142.17098010  .00000118  00000+0  00000+0 0  9991
2 38245   0.0882  91.3137 0002422 339.0691 278.5808  1.00272656 45340
AEHF-2 (USA 235)        
1 38254U 12019A   26142.08725146 -.00000143  00000+0  00000+0 0  9990
2 38254   6.5920  57.6786 0002498 354.4540 202.5394  1.00271606  6726
JCSAT-13                
1 38331U 12023A   26142.25739843 -.00000364  00000+0  00000+0 0  9994
2 38331   0.0501  90.4694 0002354 329.1841  36.9142  1.00270557 51288
VINASAT-2               
1 38332U 12023B   26142.25895843 -.00000337  00000+0  00000+0 0  9998
2 38332   0.0214  18.1394 0002420  55.9462  30.8729  1.00269558 46402
NIMIQ 6                 
1 38342U 12026A   26142.00090788 -.00000182  00000+0  00000+0 0  9998
2 38342   0.0218  39.3615 0002590  17.7876  91.7130  1.00271822 50157
ZHONGXING-2A            
1 38352U 12028A   26142.18358324 -.00000300  00000+0  00000+0 0  9995
2 38352   1.3888  84.1786 0002883  37.4067 282.5678  1.00270021 51033
INTELSAT 19 (IS-19)     
1 38356U 12030A   26142.27504807 -.00000065  00000+0  00000+0 0  9999
2 38356   0.0163 340.3744 0002826  80.4299  84.1275  1.00270649 50193
ECHOSTAR 17             
1 38551U 12035A   26142.14034497 -.00000083  00000+0  00000+0 0  9990
2 38551   0.0168 307.2156 0002045 112.3508 123.6322  1.00271415 50807
METEOSAT-10 (MSG-3)     
1 38552U 12035B   26142.09024539 -.00000014  00000+0  00000+0 0  9995
2 38552   4.6124  61.1365 0001823 320.7469 250.3800  1.00272305 50596
SES-5                   
1 38652U 12036A   26142.23382498  .00000025  00000+0  00000+0 0  9995
2 38652   0.0515 307.6160 0001849 104.8159 276.5855  1.00271214 44194
